[{"OBJECT_NAME":"STARLINK-5270","OBJECT_ID":"2023-010AG","EPOCH":"2026-03-09T21:30:57.397824","MEAN_MOTION":14.9832395,"ECCENTRICITY":0.00027794,"INCLINATION":70.0014,"RA_OF_ASC_NODE":23.7967,"ARG_OF_PERICENTER":270.2355,"MEAN_ANOMALY":89.8485,"EPHEMERIS_TYPE":0,"CLASSIFICATION_TYPE":"U","NORAD_CAT_ID":55299,"ELEMENT_SET_NO":999,"REV_AT_EPOCH":17418,"BSTAR":5.9683956e-5,"MEAN_MOTION_DOT":6.19e-6,"MEAN_MOTION_DDOT":0},{"OBJECT_NAME":"COSMOS 2251 DEB","OBJECT_ID":"1993-036ZW","EPOCH":"2026-03-09T08:08:26.165472","MEAN_MOTION":15.02749495,"ECCENTRICITY":0.00499096,"INCLINATION":74.0135,"RA_OF_ASC_NODE":183.9715,"ARG_OF_PERICENTER":290.3808,"MEAN_ANOMALY":69.2023,"EPHEMERIS_TYPE":0,"CLASSIFICATION_TYPE":"U","NORAD_CAT_ID":34752,"ELEMENT_SET_NO":999,"REV_AT_EPOCH":91149,"BSTAR":0.001245658,"MEAN_MOTION_DOT":0.00017109,"MEAN_MOTION_DDOT":0}]
